NUSAT-1 (FRESCO)        
1 41557U 16033B   21318.57893789  .00003582  00000-0  12390-3 0  9992
2 41557  97.3929  51.7556 0013966  65.5942  59.9545 15.30464839304487
BEESAT-4                
1 41619U 16040W   21318.56026669  .00003289  00000-0  12823-3 0  9998
2 41619  97.2514  10.3730 0011146 152.4726 207.7105 15.26580450287909
CAS-2T & KS-1Q          
1 41847U 16066G   21318.53838117  .00000220  00000-0  42368-4 0  9995
2 41847  98.5832  18.1546 0365813 132.1827 231.1043 14.38283478263458
NAYIF-1 (EO-88)         
1 42017U 17008BX  21318.13353472  .00003371  00000-0  12093-3 0  9995
2 42017  97.3003  23.0145 0004313 306.0997  53.9843 15.29379244264121
ZHUHAI-1 02 (CAS-4B)    
1 42759U 17034B   21318.48296926  .00000932  00000-0  68769-4 0  9997
2 42759  43.0173  76.1049 0008026  12.8689  73.4729 15.10537292243831
ZHUHAI-1 01 (CAS-4A)    
1 42761U 17034D   21318.46483172  .00001083  00000-0  77560-4 0  9996
2 42761  43.0174  75.1466 0008504  14.5206  69.5006 15.10625164243832
MAX VALIER SAT          
1 42778U 17036P   21318.54195649  .00001966  00000-0  83190-4 0  9990
2 42778  97.2378   2.1353 0011853  15.4674 344.6924 15.24288798244146
RADFXSAT (FOX-1B)       
1 43017U 17073E   21318.52237650  .00000857  00000-0  70570-4 0  9991
2 43017  97.6925 216.4646 0253771 170.2321 190.3964 14.79943953215313
FOX-1D (AO-92)          
1 43137U 18004AC  21318.47011133  .00002452  00000-0  97940-4 0  9992
2 43137  97.3942  30.9192 0009682  49.7749 310.4335 15.26056980213538
DIWATA-2B               
1 43678U 18084H   21318.36615570 -.00000073  00000-0 -14012-5 0  9992
2 43678  97.9436  84.5986 0008399 277.5366  82.4916 14.91828718165789
ES'HAIL 2               
1 43700U 18090A   21318.50295194  .00000142  00000-0  00000-0 0  9999
2 43700   0.0018  50.0878 0002408 204.4350   6.1727  1.00273782 10874
FOX-1CLIFF (AO-95)      
1 43770U 18099N   21318.13348032  .00000972  00000-0  92728-4 0  9997
2 43770  97.6500  24.9048 0012915 277.2956  82.6797 14.95538795160825
ITASAT 1                
1 43786U 18099AE  21318.49275178  .00000377  00000-0  38893-4 0  9995
2 43786  97.6525  26.0378 0013533 268.8717  91.0954 14.95807897160917
JY1SAT (JO-97)          
1 43803U 18099AX  21318.43002649  .00000321  00000-0  33571-4 0  9997
2 43803  97.6487  25.7152 0013527 268.7551  91.2121 14.96100093160911
UWE-4                   
1 43880U 18111E   21318.24580690  .00000323  00000-0  32942-4 0  9996
2 43880  97.6773 223.3414 0011529 329.8039  30.2517 14.97121829157493
NEXUS (FO-99)           
1 43937U 19003F   21318.53625400  .00002969  00000-0  11502-3 0  9997
2 43937  97.1602 355.6406 0022087 195.5265 164.5300 15.26693443157155
PSAT2 (NO-104)          
1 44354U 19036R   21318.38217179  .00026707  00000-0  32624-3 0  9994
2 44354  28.5246 203.4752 0301321 108.0002 255.3667 15.20003813131757
BRICSAT2 (NO-103)       
1 44355U 19036S   21318.56947364  .00055556 -57977-5  46432-3 0  9998
2 44355  28.5250 127.3065 0208175 232.1411 126.0188 15.44941032132539
JAISAT-1                
1 44419U 19038F   21318.33329344  .00002063  00000-0  11538-3 0  9991
2 44419  97.6084 282.6921 0021496 150.9664 209.2768 15.14429692130473
DUCHIFAT-3              
1 44854U 19089C   21318.34040123  .00001129  00000-0  95836-4 0  9992
2 44854  36.9657 294.0768 0008936 276.7155  83.2565 14.99790932105613
CAS-6 (TO-108)          
1 44881U 19093C   21318.47660726  .00000183  00000-0  30104-4 0  9994
2 44881  97.9139  35.5891 0015543 160.0565 200.1265 14.81509852102942
RS-44 & BREEZE-KM R/B   
1 44909U 19096E   21318.50321619  .00000004  00000-0 -37015-4 0  9998
2 44909  82.5247  13.1099 0218515 102.2817 260.2843 12.79711215 88010
ORBITAL FACTORY 2 (OF-2)
1 45113U 19071C   21318.58773033  .00004896  00000-0  14118-3 0  9998
2 45113  51.6428  28.8046 0011453 113.3850 246.8339 15.37528604100259
HUSKYSAT-1 (HO-107)     
1 45119U 19071J   21318.60182625  .00005299  00000-0  15249-3 0  9992
2 45119  51.6426  28.1386 0011000 110.1706 250.0462 15.37413777100254
BY70-2                  
1 45857U 20042B   21318.47320428  .00002111  00000-0  30249-3 0  9998
2 45857  97.9746  32.6331 0012292  93.1227 267.1349 14.77563335 73692
SALSAT                  
1 46495U 20068K   21318.53406082 -.00000056  00000-0  45604-6 0  9994
2 46495  97.7047 255.2344 0015202 288.3599  71.5968 15.03659496 61880
BY70-3                  
1 46839U 20079N   21318.52169774  .00005719  00000-0  16946-3 0  9995
2 46839  97.2263  29.4085 0007962  39.6664  85.4922 15.35212379 57210
RADFXSAT-2 (AO-109)     
1 47311U 21002C   21318.34227491  .00002428  00000-0  11433-3 0  9999
2 47311  60.6854  89.8394 0037545 123.9716 236.4948 15.22390592 45688
UVSQ-SAT                
1 47438U 21006AB  21318.47614710  .00001491  00000-0  86549-4 0  9991
2 47438  97.4698  16.9035 0011222 303.8710  56.1453 15.13626104 44747
DIY-1 (ARDUIQUBE)       
1 47963U 21022AH  21318.22275530  .00003255  00000-0  21286-3 0  9994
2 47963  97.5447 217.8728 0019611 148.0439 212.1983 15.08333373 34468
